1 27499U 02038A   13181.19218295  .00000073  00000-0  10000-3 0  3599
2 27499 000.0428 282.9866 0004426 210.7835 226.7955 01.00270514 39783